STARLINK-31428          
1 59367U 24060V   26068.81180564  .00000066  00000+0  11932-4 0  9998
2 59367  43.0035 258.9818 0002140 272.9507  87.1100 15.27576066110089
NUSAT-48 (HENRIETTA LE*)
1 60498U 24149AG  26068.80506098  .00012988  00000+0  45212-3 0  9999
2 60498  97.3923 150.8264 0002754 263.3026  96.7901 15.29812597 86946
